[{"OBJECT_NAME":"SYRACUSE 4A","OBJECT_ID":"2021-095B","EPOCH":"2026-03-05T17:38:13.232832","MEAN_MOTION":1.00275204,"ECCENTRICITY":0.000191,"INCLINATION":0.001,"RA_OF_ASC_NODE":164.2953,"ARG_OF_PERICENTER":179.1558,"MEAN_ANOMALY":130.0663,"EPHEMERIS_TYPE":0,"CLASSIFICATION_TYPE":"U","NORAD_CAT_ID":49333,"ELEMENT_SET_NO":999,"REV_AT_EPOCH":1691,"BSTAR":0,"MEAN_MOTION_DOT":1.28e-6,"MEAN_MOTION_DDOT":0},{"OBJECT_NAME":"QZS-1R (MICHIBIKI-1R)","OBJECT_ID":"2021-096A","EPOCH":"2026-03-06T19:46:38.510112","MEAN_MOTION":1.00290649,"ECCENTRICITY":0.0747759,"INCLINATION":37.2488,"RA_OF_ASC_NODE":81.0937,"ARG_OF_PERICENTER":269.7649,"MEAN_ANOMALY":244.5984,"EPHEMERIS_TYPE":0,"CLASSIFICATION_TYPE":"U","NORAD_CAT_ID":49336,"ELEMENT_SET_NO":999,"REV_AT_EPOCH":1598,"BSTAR":0,"MEAN_MOTION_DOT":-2.65e-6,"MEAN_MOTION_DDOT":0},{"OBJECT_NAME":"ZHONGXING-1D","OBJECT_ID":"2021-114A","EPOCH":"2026-03-06T19:42:38.894400","MEAN_MOTION":1.00271694,"ECCENTRICITY":0.0002437,"INCLINATION":0.0318,"RA_OF_ASC_NODE":283.5758,"ARG_OF_PERICENTER":301.6797,"MEAN_ANOMALY":5.1032,"EPHEMERIS_TYPE":0,"CLASSIFICATION_TYPE":"U","NORAD_CAT_ID":49505,"ELEMENT_SET_NO":999,"REV_AT_EPOCH":1579,"BSTAR":0,"MEAN_MOTION_DOT":-3.4e-6,"MEAN_MOTION_DDOT":0},{"OBJECT_NAME":"STPSAT-6","OBJECT_ID":"2021-118A","EPOCH":"2026-03-06T13:25:37.545312","MEAN_MOTION":1.00270004,"ECCENTRICITY":0.00026416,"INCLINATION":0.0574,"RA_OF_ASC_NODE":88.3324,"ARG_OF_PERICENTER":236.203,"MEAN_ANOMALY":289.3129,"EPHEMERIS_TYPE":0,"CLASSIFICATION_TYPE":"U","NORAD_CAT_ID":49817,"ELEMENT_SET_NO":999,"REV_AT_EPOCH":1554,"BSTAR":0,"MEAN_MOTION_DOT":-4.8e-7,"MEAN_MOTION_DDOT":0},{"OBJECT_NAME":"LDPE-1","OBJECT_ID":"2021-118B","EPOCH":"2026-03-06T08:00:39.372192","MEAN_MOTION":0.98906945,"ECCENTRICITY":0.00015556,"INCLINATION":4.5669,"RA_OF_ASC_NODE":75.2319,"ARG_OF_PERICENTER":194.236,"MEAN_ANOMALY":203.9266,"EPHEMERIS_TYPE":0,"CLASSIFICATION_TYPE":"U","NORAD_CAT_ID":49818,"ELEMENT_SET_NO":999,"REV_AT_EPOCH":1562,"BSTAR":0,"MEAN_MOTION_DOT":-1.2e-6,"MEAN_MOTION_DDOT":0},{"OBJECT_NAME":"EXPRESS AMU-7","OBJECT_ID":"2021-123A","EPOCH":"2026-03-06T19:47:51.645984","MEAN_MOTION":1.00272637,"ECCENTRICITY":1.15e-5,"INCLINATION":0.0191,"RA_OF_ASC_NODE":198.6434,"ARG_OF_PERICENTER":88.1404,"MEAN_ANOMALY":319.7145,"EPHEMERIS_TYPE":0,"CLASSIFICATION_TYPE":"U","NORAD_CAT_ID":50001,"ELEMENT_SET_NO":999,"REV_AT_EPOCH":1551,"BSTAR":0,"MEAN_MOTION_DOT":-2.46e-6,"MEAN_MOTION_DDOT":0},{"OBJECT_NAME":"EXPRESS AMU-3","OBJECT_ID":"2021-123B","EPOCH":"2026-03-06T06:11:57.507936","MEAN_MOTION":1.00272367,"ECCENTRICITY":4.52e-5,"INCLINATION":0.0215,"RA_OF_ASC_NODE":228.2091,"ARG_OF_PERICENTER":1.2561,"MEAN_ANOMALY":130.5038,"EPHEMERIS_TYPE":0,"CLASSIFICATION_TYPE":"U","NORAD_CAT_ID":50002,"ELEMENT_SET_NO":999,"REV_AT_EPOCH":600,"BSTAR":0,"MEAN_MOTION_DOT":-3.26e-6,"MEAN_MOTION_DDOT":0},{"OBJECT_NAME":"TIANLIAN 2-02","OBJECT_ID":"2021-124A","EPOCH":"2026-03-06T19:54:22.769280","MEAN_MOTION":1.00271679,"ECCENTRICITY":0.0004546,"INCLINATION":0.5369,"RA_OF_ASC_NODE":88.1855,"ARG_OF_PERICENTER":209.7066,"MEAN_ANOMALY":336.1893,"EPHEMERIS_TYPE":0,"CLASSIFICATION_TYPE":"U","NORAD_CAT_ID":50005,"ELEMENT_SET_NO":999,"REV_AT_EPOCH":1559,"BSTAR":0,"MEAN_MOTION_DOT":-1.8e-7,"MEAN_MOTION_DDOT":0},{"OBJECT_NAME":"TURKSAT 5B","OBJECT_ID":"2021-126A","EPOCH":"2026-03-05T20:51:38.605248","MEAN_MOTION":1.00272681,"ECCENTRICITY":0.0005484,"INCLINATION":0.0736,"RA_OF_ASC_NODE":331.3895,"ARG_OF_PERICENTER":0.3118,"MEAN_ANOMALY":186.7709,"EPHEMERIS_TYPE":0,"CLASSIFICATION_TYPE":"U","NORAD_CAT_ID":50212,"ELEMENT_SET_NO":999,"REV_AT_EPOCH":1526,"BSTAR":0,"MEAN_MOTION_DOT":1.4e-6,"MEAN_MOTION_DDOT":0},{"OBJECT_NAME":"INMARSAT 6-F1","OBJECT_ID":"2021-128A","EPOCH":"2026-03-05T17:19:38.655552","MEAN_MOTION":1.00275695,"ECCENTRICITY":2.804e-5,"INCLINATION":0.0172,"RA_OF_ASC_NODE":163.0377,"ARG_OF_PERICENTER":175.2787,"MEAN_ANOMALY":168.7954,"EPHEMERIS_TYPE":0,"CLASSIFICATION_TYPE":"U","NORAD_CAT_ID":50319,"ELEMENT_SET_NO":999,"REV_AT_EPOCH":1522,"BSTAR":0,"MEAN_MOTION_DOT":-1.79e-6,"MEAN_MOTION_DDOT":0},{"OBJECT_NAME":"SHIYAN-12 01 (SY-12 01)","OBJECT_ID":"2021-129A","EPOCH":"2026-03-06T18:31:58.611360","MEAN_MOTION":1.00095146,"ECCENTRICITY":0.0003692,"INCLINATION":3.41,"RA_OF_ASC_NODE":81.3211,"ARG_OF_PERICENTER":251.0007,"MEAN_ANOMALY":247.3424,"EPHEMERIS_TYPE":0,"CLASSIFICATION_TYPE":"U","NORAD_CAT_ID":50321,"ELEMENT_SET_NO":999,"REV_AT_EPOCH":1547,"BSTAR":0,"MEAN_MOTION_DOT":-3.22e-6,"MEAN_MOTION_DDOT":0},{"OBJECT_NAME":"SHIYAN-12 02 (SY-12 02)","OBJECT_ID":"2021-129B","EPOCH":"2026-03-06T17:47:30.912000","MEAN_MOTION":1.00094975,"ECCENTRICITY":0.0003284,"INCLINATION":3.4103,"RA_OF_ASC_NODE":81.3385,"ARG_OF_PERICENTER":226.2332,"MEAN_ANOMALY":146.4151,"EPHEMERIS_TYPE":0,"CLASSIFICATION_TYPE":"U","NORAD_CAT_ID":50322,"ELEMENT_SET_NO":999,"REV_AT_EPOCH":1547,"BSTAR":0,"MEAN_MOTION_DOT":1.11e-6,"MEAN_MOTION_DDOT":0},{"OBJECT_NAME":"TJS-9","OBJECT_ID":"2021-135A","EPOCH":"2026-03-06T19:44:38.701824","MEAN_MOTION":1.00273994,"ECCENTRICITY":0.0004232,"INCLINATION":0.0424,"RA_OF_ASC_NODE":112.2356,"ARG_OF_PERICENTER":40.3085,"MEAN_ANOMALY":85.3506,"EPHEMERIS_TYPE":0,"CLASSIFICATION_TYPE":"U","NORAD_CAT_ID":50574,"ELEMENT_SET_NO":999,"REV_AT_EPOCH":1540,"BSTAR":0,"MEAN_MOTION_DOT":-3.02e-6,"MEAN_MOTION_DDOT":0},{"OBJECT_NAME":"GOES 18","OBJECT_ID":"2022-021A","EPOCH":"2026-03-06T18:26:31.194240","MEAN_MOTION":1.00273571,"ECCENTRICITY":7.97e-5,"INCLINATION":0.0296,"RA_OF_ASC_NODE":62.8119,"ARG_OF_PERICENTER":344.0189,"MEAN_ANOMALY":257.2749,"EPHEMERIS_TYPE":0,"CLASSIFICATION_TYPE":"U","NORAD_CAT_ID":51850,"ELEMENT_SET_NO":999,"REV_AT_EPOCH":556,"BSTAR":0,"MEAN_MOTION_DOT":9.3e-7,"MEAN_MOTION_DDOT":0},{"OBJECT_NAME":"ZHONGXING-6D","OBJECT_ID":"2022-038A","EPOCH":"2026-03-06T04:43:48.131040","MEAN_MOTION":1.00271514,"ECCENTRICITY":0.0002157,"INCLINATION":0.0405,"RA_OF_ASC_NODE":244.5748,"ARG_OF_PERICENTER":63.9143,"MEAN_ANOMALY":51.4642,"EPHEMERIS_TYPE":0,"CLASSIFICATION_TYPE":"U","NORAD_CAT_ID":52255,"ELEMENT_SET_NO":999,"REV_AT_EPOCH":1439,"BSTAR":0,"MEAN_MOTION_DOT":-3.59e-6,"MEAN_MOTION_DDOT":0},{"OBJECT_NAME":"NILESAT 301","OBJECT_ID":"2022-061A","EPOCH":"2026-03-05T22:31:21.469152","MEAN_MOTION":1.00271675,"ECCENTRICITY":0.00056426,"INCLINATION":0.0244,"RA_OF_ASC_NODE":337.5275,"ARG_OF_PERICENTER":14.9296,"MEAN_ANOMALY":142.0897,"EPHEMERIS_TYPE":0,"CLASSIFICATION_TYPE":"U","NORAD_CAT_ID":52817,"ELEMENT_SET_NO":999,"REV_AT_EPOCH":1370,"BSTAR":0,"MEAN_MOTION_DOT":0,"MEAN_MOTION_DDOT":0},{"OBJECT_NAME":"CMS-02 (GSAT 24)","OBJECT_ID":"2022-067A","EPOCH":"2026-03-06T19:29:17.674368","MEAN_MOTION":1.00272036,"ECCENTRICITY":0.0002509,"INCLINATION":0.0416,"RA_OF_ASC_NODE":250.3858,"ARG_OF_PERICENTER":48.043,"MEAN_ANOMALY":241.4334,"EPHEMERIS_TYPE":0,"CLASSIFICATION_TYPE":"U","NORAD_CAT_ID":52903,"ELEMENT_SET_NO":999,"REV_AT_EPOCH":1358,"BSTAR":0,"MEAN_MOTION_DOT":-1.68e-6,"MEAN_MOTION_DDOT":0}]
