SYRACUSE 4A             
1 49333U 21095B   26064.73487538  .00000128  00000+0  00000+0 0  9991
2 49333   0.0010 164.2953 0001910 179.1558 130.0663  1.00275204 16919
QZS-1R (MICHIBIKI-1R)   
1 49336U 21096A   26065.82405683 -.00000265  00000+0  00000+0 0  9990
2 49336  37.2488  81.0937 0747759 269.7649 244.5984  1.00290649 15989
ZHONGXING-1D            
1 49505U 21114A   26065.82128350 -.00000340  00000+0  00000+0 0  9996
2 49505   0.0318 283.5758 0002437 301.6797   5.1032  1.00271694 15797
STPSAT-6                
1 49817U 21118A   26065.55946233 -.00000048  00000+0  00000+0 0  9999
2 49817   0.0574  88.3324 0002641 236.2030 289.3129  1.00270004 15547
LDPE-1                  
1 49818U 21118B   26065.33378903 -.00000120  00000+0  00000+0 0  9990
2 49818   4.5669  75.2319 0001555 194.2360 203.9266  0.98906945 15622
EXPRESS AMU-7           
1 50001U 21123A   26065.82490331 -.00000246  00000+0  00000+0 0  9995
2 50001   0.0191 198.6434 0000115  88.1404 319.7145  1.00272637 15516
EXPRESS AMU-3           
1 50002U 21123B   26065.25830449 -.00000326  00000+0  00000+0 0  9990
2 50002   0.0215 228.2091 0000452   1.2561 130.5038  1.00272367  6001
TIANLIAN 2-02           
1 50005U 21124A   26065.82943020 -.00000018  00000+0  00000+0 0  9995
2 50005   0.5369  88.1855 0004546 209.7066 336.1893  1.00271679 15595
TURKSAT 5B              
1 50212U 21126A   26064.86919682  .00000140  00000+0  00000+0 0  9992
2 50212   0.0736 331.3895 0005484   0.3118 186.7709  1.00272681 15263
INMARSAT 6-F1           
1 50319U 21128A   26064.72197518 -.00000179  00000+0  00000+0 0  9996
2 50319   0.0172 163.0377 0000280 175.2787 168.7954  1.00275695 15229
SHIYAN-12 01 (SY-12 01) 
1 50321U 21129A   26065.77220615 -.00000322  00000+0  00000+0 0  9991
2 50321   3.4100  81.3211 0003692 251.0007 247.3424  1.00095146 15471
SHIYAN-12 02 (SY-12 02) 
1 50322U 21129B   26065.74133000  .00000111  00000+0  00000+0 0  9995
2 50322   3.4103  81.3385 0003284 226.2332 146.4151  1.00094975 15474
TJS-9                   
1 50574U 21135A   26065.82267016 -.00000302  00000+0  00000+0 0  9998
2 50574   0.0424 112.2356 0004232  40.3085  85.3506  1.00273994 15406
GOES 18                 
1 51850U 22021A   26065.76841660  .00000093  00000+0  00000+0 0  9993
2 51850   0.0296  62.8119 0000797 344.0189 257.2749  1.00273571  5565
ZHONGXING-6D            
1 52255U 22038A   26065.19708485 -.00000359  00000+0  00000+0 0  9991
2 52255   0.0405 244.5748 0002157  63.9143  51.4642  1.00271514 14395
NILESAT 301             
1 52817U 22061A   26064.93844293  .00000000  00000+0  00000+0 0  9992
2 52817   0.0244 337.5275 0005642  14.9296 142.0897  1.00271675 13706
CMS-02 (GSAT 24)        
1 52903U 22067A   26065.81201012 -.00000168  00000+0  00000+0 0  9994
2 52903   0.0416 250.3858 0002509  48.0430 241.4334  1.00272036 13587
